{
  "type": "FeatureCollection",
  "features": [
    {
      "type": "Feature",
      "properties": {
        "norad_id": 66330,
        "name": "STARLINK-35512",
        "group": "last-30-days",
        "lat": -11.10449864305985,
        "lon": 21.320237568301287,
        "alt_km": 445.30609599714353,
        "timestamp": "2025-12-04T10:51:48.874231+00:00",
        "meta_object_name": "STARLINK-35512",
        "meta_object_id": "2025-253M",
        "meta_epoch": "2025-12-04T04:00:03.000096",
        "meta_mean_motion": 15.40708771,
        "meta_eccentricity": 9.67e-05,
        "meta_inclination": 43.0005,
        "meta_ra_of_asc_node": 35.1273,
        "meta_arg_of_pericenter": 242.0826,
        "meta_mean_anomaly": 313.6867,
        "meta_ephemeris_type": 0,
        "meta_classification_type": "U",
        "meta_norad_cat_id": 66330,
        "meta_element_set_no": 999,
        "meta_rev_at_epoch": 555,
        "meta_bstar": -0.0011664,
        "meta_mean_motion_dot": -0.0004873,
        "meta_mean_motion_ddot": 0,
        "tle_line1": "1 66330U 25253M   25338.16670139 -.00048730  00000+0 -11664-2 0  9992",
        "tle_line2": "2 66330  43.0005  35.1273 0000967 242.0826 313.6867 15.40708771  5558"
      },
      "geometry": {
        "type": "Point",
        "coordinates": [
          21.320237568301287,
          -11.10449864305985
        ]
      }
    },
    {
      "type": "Feature",
      "properties": {
        "norad_id": 66331,
        "name": "STARLINK-35257",
        "group": "last-30-days",
        "lat": 33.245510215958646,
        "lon": 168.42265128894124,
        "alt_km": 410.19587783938096,
        "timestamp": "2025-12-04T10:51:48.874242+00:00",
        "meta_object_name": "STARLINK-35257",
        "meta_object_id": "2025-253N",
        "meta_epoch": "2025-12-03T12:40:46.235424",
        "meta_mean_motion": 15.50612497,
        "meta_eccentricity": 0.00017622,
        "meta_inclination": 42.9995,
        "meta_ra_of_asc_node": 38.5379,
        "meta_arg_of_pericenter": 289.6299,
        "meta_mean_anomaly": 70.4371,
        "meta_ephemeris_type": 0,
        "meta_classification_type": "U",
        "meta_norad_cat_id": 66331,
        "meta_element_set_no": 999,
        "meta_rev_at_epoch": 550,
        "meta_bstar": 0.0018759457,
        "meta_mean_motion_dot": 0.00111424,
        "meta_mean_motion_ddot": 0,
        "tle_line1": "1 66331U 25253N   25337.52831291  .00111424  00000+0  18759-2 0  9991",
        "tle_line2": "2 66331  42.9995  38.5379 0001762 289.6299  70.4371 15.50612497  5507"
      },
      "geometry": {
        "type": "Point",
        "coordinates": [
          168.42265128894124,
          33.245510215958646
        ]
      }
    },
    {
      "type": "Feature",
      "properties": {
        "norad_id": 66332,
        "name": "STARLINK-35322",
        "group": "last-30-days",
        "lat": 41.351088791117434,
        "lon": 104.07008886002801,
        "alt_km": 429.38099207568393,
        "timestamp": "2025-12-04T10:51:48.874253+00:00",
        "meta_object_name": "STARLINK-35322",
        "meta_object_id": "2025-253P",
        "meta_epoch": "2025-12-03T15:54:04.667328",
        "meta_mean_motion": 15.43882577,
        "meta_eccentricity": 0.0001814,
        "meta_inclination": 42.9998,
        "meta_ra_of_asc_node": 37.8272,
        "meta_arg_of_pericenter": 5.7146,
        "meta_mean_anomaly": 354.3732,
        "meta_ephemeris_type": 0,
        "meta_classification_type": "U",
        "meta_norad_cat_id": 66332,
        "meta_element_set_no": 999,
        "meta_rev_at_epoch": 552,
        "meta_bstar": -0.0089578,
        "meta_mean_motion_dot": -0.00395993,
        "meta_mean_motion_ddot": 0,
        "tle_line1": "1 66332U 25253P   25337.66255402 -.00395993  00000+0 -89578-2 0  9995",
        "tle_line2": "2 66332  42.9998  37.8272 0001814   5.7146 354.3732 15.43882577  5528"
      },
      "geometry": {
        "type": "Point",
        "coordinates": [
          104.07008886002801,
          41.351088791117434
        ]
      }
    },
    {
      "type": "Feature",
      "properties": {
        "norad_id": 66333,
        "name": "STARLINK-35400",
        "group": "last-30-days",
        "lat": 34.121442652392,
        "lon": 166.48851097781588,
        "alt_km": 410.14196849185464,
        "timestamp": "2025-12-04T10:51:48.874281+00:00",
        "meta_object_name": "STARLINK-35400",
        "meta_object_id": "2025-253Q",
        "meta_epoch": "2025-12-03T12:41:15.457632",
        "meta_mean_motion": 15.50633816,
        "meta_eccentricity": 0.0002479,
        "meta_inclination": 43.0028,
        "meta_ra_of_asc_node": 38.5379,
        "meta_arg_of_pericenter": 261.0989,
        "meta_mean_anomaly": 98.959,
        "meta_ephemeris_type": 0,
        "meta_classification_type": "U",
        "meta_norad_cat_id": 66333,
        "meta_element_set_no": 999,
        "meta_rev_at_epoch": 550,
        "meta_bstar": 0.0019355,
        "meta_mean_motion_dot": 0.00115116,
        "meta_mean_motion_ddot": 0,
        "tle_line1": "1 66333U 25253Q   25337.52865113  .00115116  00000+0  19355-2 0  9998",
        "tle_line2": "2 66333  43.0028  38.5379 0002479 261.0989  98.9590 15.50633816  5500"
      },
      "geometry": {
        "type": "Point",
        "coordinates": [
          166.48851097781588,
          34.121442652392
        ]
      }
    },
    {
      "type": "Feature",
      "properties": {
        "norad_id": 66334,
        "name": "STARLINK-35407",
        "group": "last-30-days",
        "lat": 14.189017161292341,
        "lon": 49.13193364314518,
        "alt_km": 441.33849690714214,
        "timestamp": "2025-12-04T10:51:48.874293+00:00",
        "meta_object_name": "STARLINK-35407",
        "meta_object_id": "2025-253R",
        "meta_epoch": "2025-12-04T04:32:58.300224",
        "meta_mean_motion": 15.40796899,
        "meta_eccentricity": 6.11e-05,
        "meta_inclination": 42.9992,
        "meta_ra_of_asc_node": 34.9051,
        "meta_arg_of_pericenter": 285.6311,
        "meta_mean_anomaly": 74.4478,
        "meta_ephemeris_type": 0,
        "meta_classification_type": "U",
        "meta_norad_cat_id": 66334,
        "meta_element_set_no": 999,
        "meta_rev_at_epoch": 560,
        "meta_bstar": 0.0029412,
        "meta_mean_motion_dot": 0.00124991,
        "meta_mean_motion_ddot": 0,
        "tle_line1": "1 66334U 25253R   25338.18956366  .00124991  00000+0  29412-2 0  9999",
        "tle_line2": "2 66334  42.9992  34.9051 0000611 285.6311  74.4478 15.40796899  5608"
      },
      "geometry": {
        "type": "Point",
        "coordinates": [
          49.13193364314518,
          14.189017161292341
        ]
      }
    },
    {
      "type": "Feature",
      "properties": {
        "norad_id": 66335,
        "name": "STARLINK-35417",
        "group": "last-30-days",
        "lat": -33.333170605422836,
        "lon": -11.325284316159324,
        "alt_km": 446.4056270904757,
        "timestamp": "2025-12-04T10:51:48.874304+00:00",
        "meta_object_name": "STARLINK-35417",
        "meta_object_id": "2025-253S",
        "meta_epoch": "2025-12-04T00:00:02.000160",
        "meta_mean_motion": 15.40725454,
        "meta_eccentricity": 0.0001523,
        "meta_inclination": 43.0009,
        "meta_ra_of_asc_node": 36.1763,
        "meta_arg_of_pericenter": 254.3794,
        "meta_mean_anomaly": 58.4875,
        "meta_ephemeris_type": 0,
        "meta_classification_type": "U",
        "meta_norad_cat_id": 66335,
        "meta_element_set_no": 999,
        "meta_rev_at_epoch": 552,
        "meta_bstar": -0.0019018,
        "meta_mean_motion_dot": -0.00078998,
        "meta_mean_motion_ddot": 0,
        "tle_line1": "1 66335U 25253S   25338.00002315 -.00078998  00000+0 -19018-2 0  9995",
        "tle_line2": "2 66335  43.0009  36.1763 0001523 254.3794  58.4875 15.40725454  5528"
      },
      "geometry": {
        "type": "Point",
        "coordinates": [
          -11.325284316159324,
          -33.333170605422836
        ]
      }
    },
    {
      "type": "Feature",
      "properties": {
        "norad_id": 66336,
        "name": "STARLINK-35404",
        "group": "last-30-days",
        "lat": 32.27604837265337,
        "lon": 170.44801868766467,
        "alt_km": 409.6332588306086,
        "timestamp": "2025-12-04T10:51:48.874314+00:00",
        "meta_object_name": "STARLINK-35404",
        "meta_object_id": "2025-253T",
        "meta_epoch": "2025-12-03T12:40:16.785984",
        "meta_mean_motion": 15.50633101,
        "meta_eccentricity": 8.71e-05,
        "meta_inclination": 42.9975,
        "meta_ra_of_asc_node": 38.5345,
        "meta_arg_of_pericenter": 265.211,
        "meta_mean_anomaly": 94.865,
        "meta_ephemeris_type": 0,
        "meta_classification_type": "U",
        "meta_norad_cat_id": 66336,
        "meta_element_set_no": 999,
        "meta_rev_at_epoch": 550,
        "meta_bstar": 0.0017646328,
        "meta_mean_motion_dot": 0.00104778,
        "meta_mean_motion_ddot": 0,
        "tle_line1": "1 66336U 25253T   25337.52797206  .00104778  00000+0  17646-2 0  9991",
        "tle_line2": "2 66336  42.9975  38.5345 0000871 265.2110  94.8650 15.50633101  5500"
      },
      "geometry": {
        "type": "Point",
        "coordinates": [
          170.44801868766467,
          32.27604837265337
        ]
      }
    }
  ]
}